CSS (TIANHE)            
1 48274U 21035A   24253.56825476  .00038368  00000+0  40217-3 0  9999
2 48274  41.4687 288.7603 0001331  74.3285 285.7702 15.63639434192296
